ONEWEB-0589             
1 54655U 22166P   25310.64960525  .00000073  00000+0  14530-3 0  9995
2 54655  87.9170 288.3852 0001004  83.2715 276.8533 13.21824040142147
ONEWEB-0590             
1 54656U 22166Q   25310.97696283 -.00000042  00000+0 -13382-3 0  9991
2 54656  87.9173 288.2958 0001918  71.8013 288.3329 13.21825521142174
ONEWEB-0591             
1 54657U 22166R   25310.45874625  .00000005  00000+0 -19771-4 0  9990
2 54657  87.9174 288.4233 0001791  83.4260 276.7078 13.21826197142134
ONEWEB-0592             
1 54658U 22166S   25310.99191163 -.00000065  00000+0 -18844-3 0  9995
2 54658  87.9185 288.2761 0001775  83.8678 276.2659 13.21826242142085
ONEWEB-0593             
1 54659U 22166T   25310.93924992  .00000010  00000+0 -70810-5 0  9996
2 54659  87.9173 288.3171 0001784  89.8136 270.3203 13.21827952142184
ONEWEB-0594             
1 54660U 22166U   25310.88329965  .00000142  00000+0  31130-3 0  9996
2 54660  87.9170 288.3462 0001945  86.8622 273.2735 13.21828072142199
ONEWEB-0595             
1 54661U 22166V   25310.93594561 -.00000002  00000+0 -35462-4 0  9999
2 54661  87.9171 288.3092 0002021  82.8602 277.2761 13.21825116142177
ONEWEB-0596             
1 54662U 22166W   25311.28810718  .00000058  00000+0  10884-3 0  9993
2 54662  87.9176 288.2551 0001893  82.5649 277.5700 13.21827469142221
ONEWEB-0597             
1 54663U 22166X   25310.96722713 -.00000092  00000+0 -25473-3 0  9995
2 54663  87.9165 288.3244 0001707  85.6594 274.4735 13.21826262142186
ONEWEB-0600             
1 54664U 22166Y   25310.87342703 -.00000009  00000+0 -54331-4 0  9997
2 54664  87.9172 288.3334 0001748  90.3068 269.8266 13.21826561142144
ONEWEB-0601             
1 54665U 22166Z   25310.86519789 -.00000009  00000+0 -53304-4 0  9996
2 54665  87.9175 288.3528 0001560  86.7939 273.3374 13.21826720142339
ONEWEB-0602             
1 54666U 22166AA  25310.98119674 -.00000047  00000+0 -14600-3 0  9996
2 54666  87.9176 288.3331 0001873  97.9989 262.1358 13.21824501142196
ONEWEB-0603             
1 54667U 22166AB  25310.91125966 -.00001146  00000+0 -28076-2 0  9993
2 54667  87.9184 288.2834 0001902  87.1340 273.0011 13.21830228142110
ONEWEB-0604             
1 54668U 22166AC  25310.97543556 -.00000024  00000+0 -89985-4 0  9991
2 54668  87.9172 288.2935 0001719  91.5314 268.6017 13.21823101142080
ONEWEB-0605             
1 54669U 22166AD  25310.96886686 -.00000014  00000+0 -66408-4 0  9999
2 54669  87.9168 288.3236 0001338  72.6286 287.4994 13.21826538142154
ONEWEB-0606             
1 54670U 22166AE  25310.91455473  .00000127  00000+0  27487-3 0  9998
2 54670  87.9172 288.3448 0002374  82.7609 277.3795 13.21827718142202
ONEWEB-0607             
1 54671U 22166AF  25310.42747402  .00000173  00000+0  38765-3 0  9993
2 54671  87.9176 288.4060 0001805  88.2747 271.8594 13.21826737142116
ONEWEB-0608             
1 54672U 22166AG  25310.88823777  .00000144  00000+0  31604-3 0  9997
2 54672  87.9179 288.2992 0001342  85.1426 274.9861 13.21829281142183
ONEWEB-0610             
1 54673U 22166AH  25311.01987621 -.00000230  00000+0 -58885-3 0  9991
2 54673  87.9171 288.3085 0001182  86.7653 273.3616 13.21823954142105
ONEWEB-0611             
1 54674U 22166AJ  25310.93758817  .00000007  00000+0 -14062-4 0  9996
2 54674  87.9173 288.3206 0002095  87.3165 272.8209 13.21824970142080
ONEWEB-0612             
1 54675U 22166AK  25310.87506669  .00000029  00000+0  37875-4 0  9996
2 54675  87.9172 288.3122 0001692  87.3715 272.7612 13.21826488142061
ONEWEB-0615             
1 54676U 22166AL  25310.93099601 -.00000034  00000+0 -11319-3 0  9999
2 54676  87.9174 288.3273 0001860  86.2224 273.9123 13.21827320142089
ONEWEB-0655             
1 54677U 22166AM  25310.98202592 -.00000342  00000+0 -86009-3 0  9990
2 54677  87.9169 288.3221 0001539  97.0774 263.0535 13.21824167142083
ONEWEB-0659             
1 54678U 22166AN  25310.46861536  .00000085  00000+0  17339-3 0  9995
2 54678  87.9171 288.4248 0001949  83.5750 276.5605 13.21827902142106
ONEWEB-0685             
1 54679U 22166AP  25310.99915461 -.00000076  00000+0 -21613-3 0  9993
2 54679  87.9169 288.3147 0001638  87.7716 272.3606 13.21831069142063
ONEWEB-0712             
1 54680U 22166AQ  25310.61690384 -.00000058  00000+0 -18495-3 0  9992
2 54680  87.9008 273.0977 0001915  99.4740 260.6608 13.16595871142776
ONEWEB-0714             
1 54681U 22166AR  25310.92934792 -.00000039  00000+0 -12508-3 0  9999
2 54681  87.9174 288.3224 0001713  90.4437 269.6894 13.21827380142174
ONEWEB-0532             
1 55140U 23004A   25311.29971781  .00000297  00000+0  73307-3 0  9990
2 55140  87.9138  49.9801 0001419  88.6278 271.5016 13.17647486138368
ONEWEB-0533             
1 55141U 23004B   25311.22609515  .00000504  00000+0  13658-2 0  9990
2 55141  87.8975  34.7577 0001601 107.0760 253.0544 13.12444456138946
ONEWEB-0541             
1 55142U 23004C   25311.23500132  .00000631  00000+0  17444-2 0  9995
2 55142  87.8858  65.2458 0001636  95.8627 264.2688 13.11418237136856
ONEWEB-0543             
1 55143U 23004D   25311.22505779  .00000075  00000+0  15733-3 0  9999
2 55143  87.9207  19.5862 0001955 107.1042 253.0305 13.18686708140448
ONEWEB-0544             
1 55144U 23004E   25311.14258273  .00000158  00000+0  36766-3 0  9996
2 55144  87.9208  19.5925 0001954 101.9278 258.2073 13.18687585140434
ONEWEB-0560             
1 55145U 23004F   25311.13598747  .00000090  00000+0  19605-3 0  9997
2 55145  87.9216  19.5779 0002112 100.7237 259.4133 13.18687177140448
ONEWEB-0565             
1 55146U 23004G   25311.12938694 -.00000207  00000+0 -55707-3 0  9991
2 55146  87.9242  19.6331 0002159  82.2148 277.9229 13.18689262140436
ONEWEB-0567             
1 55147U 23004H   25311.19866451  .00000095  00000+0  20846-3 0  9999
2 55147  87.9215  19.5785 0002162  92.6686 267.4694 13.18687943140440
ONEWEB-0569             
1 55148U 23004J   25311.17895906 -.00000490  00000+0 -13762-2 0  9994
2 55148  87.9033   4.3315 0002813  95.2535 264.8916 13.13469752141030
ONEWEB-0570             
1 55149U 23004K   25311.26464657  .00000005  00000+0 -19878-4 0  9997
2 55149  87.9214  19.5655 0001642  82.9060 277.2259 13.18687300140440
ONEWEB-0571             
1 55150U 23004L   25311.25804561  .00000035  00000+0  55078-4 0  9994
2 55150  87.9207  19.5685 0002860  82.1118 278.0338 13.18684561140450
ONEWEB-0572             
1 55151U 23004M   25311.25417097  .00000048  00000+0  91196-4 0  9994
2 55151  87.9137  49.9982 0001791  94.8695 265.2641 13.17650046138252
ONEWEB-0573             
1 55152U 23004N   25311.25145281 -.00000006  00000+0 -47777-4 0  9990
2 55152  87.9205  19.5766 0002188  77.3859 282.7518 13.18686714140444
ONEWEB-0588             
1 55153U 23004P   25311.24485380  .00000045  00000+0  80366-4 0  9999
2 55153  87.9215  19.5685 0001771  84.5152 275.6182 13.18686795140446
ONEWEB-0598             
1 55154U 23004Q   25311.28924865 -.00000039  00000+0 -14726-3 0  9991
2 55154  87.8849  65.2653 0002225  94.7726 265.3656 13.11418812136811
ONEWEB-0599             
1 55155U 23004R   25311.29128410  .00000041  00000+0  72512-4 0  9994
2 55155  87.9138  49.9937 0001878 102.9592 257.1750 13.17651132138269
ONEWEB-0614             
1 55156U 23004S   25311.28415619 -.00000282  00000+0 -83182-3 0  9997
2 55156  87.8851  65.2757 0001284  94.5791 265.5484 13.11420369136759
ONEWEB-0616             
1 55157U 23004T   25311.25754149  .00000037  00000+0  61897-4 0  9995
2 55157  87.9132  49.9909 0002401 123.4242 236.7119 13.17650746138472
ONEWEB-0617             
1 55158U 23004U   25311.27227649 -.00000450  00000+0 -13042-2 0  9996
2 55158  87.8852  65.2571 0001507  88.6895 271.4406 13.11415611136779
ONEWEB-0618             
1 55159U 23004V   25310.84936547  .00010742  00000+0  66113-3 0  9994
2 55159  86.9066 267.7521 0016241  44.8856 315.3692 15.09786546148677
ONEWEB-0619             
1 55160U 23004W   25311.28960465  .00000067  00000+0  13821-3 0  9998
2 55160  87.9136  49.9588 0001354 114.9879 245.1394 13.17650222138377
ONEWEB-0620             
1 55161U 23004X   25311.26719254 -.00000419  00000+0 -12182-2 0  9996
2 55161  87.8849  65.2779 0001731  94.2273 265.9053 13.11414412136742
ONEWEB-0621             
1 55162U 23004Y   25311.29434265  .00000171  00000+0  44581-3 0  9998
2 55162  87.8864  65.2392 0001385 101.7581 258.3702 13.11418824136728
ONEWEB-0622             
1 55163U 23004Z   25311.29942025  .00000400  00000+0  10939-2 0  9991
2 55163  87.8850  65.2509 0001321  72.0155 288.1117 13.11420474136715
ONEWEB-0623             
1 55164U 23004AA  25311.28452691 -.00000008  00000+0 -52842-4 0  9993
2 55164  87.9128  50.0123 0000943  86.7829 273.3411 13.17653161138361
ONEWEB-0624             
1 55165U 23004AB  25311.27358047 -.00000290  00000+0 -83463-3 0  9998
2 55165  87.8964  34.7156 0001469  98.4687 261.6609 13.12918891138953
ONEWEB-0625             
1 55166U 23004AC  25311.27440211  .00000094  00000+0  20945-3 0  9990
2 55166  87.9128  50.0097 0001784 105.8968 254.2360 13.17651067138357
ONEWEB-0626             
1 55167U 23004AD  25311.26429158  .00000050  00000+0  95012-4 0  9997
2 55167  87.9132  50.0111 0002168  93.7140 266.4239 13.17651065138352
ONEWEB-0627             
1 55168U 23004AE  25311.25246662  .00000090  00000+0  19751-3 0  9993
2 55168  87.9124  50.0141 0001239  87.8021 272.3252 13.17651812138358
ONEWEB-0628             
1 55169U 23004AF  25311.24893681 -.00000036  00000+0 -13589-3 0  9997
2 55169  87.8976  34.7385 0001007 104.6532 255.4708 13.12442986138926
ONEWEB-0629             
1 55170U 23004AG  25311.22801470  .00000095  00000+0  21270-3 0  9991
2 55170  87.9131  50.0158 0001469 110.5301 249.5989 13.17649099138354
ONEWEB-0631             
1 55171U 23004AH  25311.23825103  .00000126  00000+0  28660-3 0  9997
2 55171  87.9226  19.5138 0002066  84.3018 275.8350 13.18687539140422
